[{"OBJECT_NAME":"STARLINK-32824","OBJECT_ID":"2025-018M","EPOCH":"2026-03-09T21:38:18.031776","MEAN_MOTION":15.30188443,"ECCENTRICITY":9.957e-5,"INCLINATION":53.1589,"RA_OF_ASC_NODE":308.4072,"ARG_OF_PERICENTER":70.2331,"MEAN_ANOMALY":289.8777,"EPHEMERIS_TYPE":0,"CLASSIFICATION_TYPE":"U","NORAD_CAT_ID":62817,"ELEMENT_SET_NO":999,"REV_AT_EPOCH":6415,"BSTAR":0.00054845188,"MEAN_MOTION_DOT":0.00015913,"MEAN_MOTION_DDOT":0},{"OBJECT_NAME":"OBJECT B","OBJECT_ID":"2025-313B","EPOCH":"2026-03-09T22:01:30.454176","MEAN_MOTION":14.73613198,"ECCENTRICITY":0.02934893,"INCLINATION":97.5206,"RA_OF_ASC_NODE":141.38,"ARG_OF_PERICENTER":298.1139,"MEAN_ANOMALY":59.0692,"EPHEMERIS_TYPE":0,"CLASSIFICATION_TYPE":"U","NORAD_CAT_ID":67249,"ELEMENT_SET_NO":999,"REV_AT_EPOCH":1051,"BSTAR":0.00024043091,"MEAN_MOTION_DOT":3.075e-5,"MEAN_MOTION_DDOT":0}]
